OBJECT_NAME,OBJECT_ID,EPOCH,MEAN_MOTION,ECCENTRICITY,INCLINATION,RA_OF_ASC_NODE,ARG_OF_PERICENTER,MEAN_ANOMALY,EPHEMERIS_TYPE,CLASSIFICATION_TYPE,NORAD_CAT_ID,ELEMENT_SET_NO,REV_AT_EPOCH,BSTAR,MEAN_MOTION_DOT,MEAN_MOTION_DDOT
M2 PATHFINDER,2020-037E,2026-07-20T07:06:00.278784,15.04801382,.00124351,97.8141,32.9023,46.2427,313.9826,0,U,45727,999,33047,.90085355E-4,.1209E-4,0
NETSAT-4,2020-068U,2026-07-20T07:09:27.885888,15.44862038,.00054022,97.8610,212.2265,175.3559,184.7739,0,U,46504,999,32088,.22118937E-3,.10287E-3,0
NETSAT-3,2020-068V,2026-07-20T00:07:38.989632,15.43709807,.00044227,97.8662,210.0865,191.3904,168.7244,0,U,46505,999,32074,.23434106E-3,.10484E-3,0
NETSAT-1,2020-068W,2026-07-20T06:01:20.129088,15.35314629,.00027674,97.8763,204.2840,233.3172,126.7816,0,U,46506,999,32037,.19913427E-3,.674E-4,0
NETSAT-2,2020-068X,2026-07-20T06:56:21.168096,15.47303503,.00028987,97.8622,212.2399,187.9093,172.2110,0,U,46507,999,32085,.26687546E-3,.13521E-3,0
GREENCUBE (IO-117),2022-080E,2026-07-20T04:18:04.419648,6.42583323,.00090888,70.1400,286.7734,282.4177,77.5466,0,U,53109,999,9418,0,-.3E-7,0
SITRO-AIS 5 (KATYS),2023-091L,2026-07-20T05:34:37.155072,15.30128407,.00101038,97.5037,265.4594,354.1557,5.9564,0,U,57176,999,16939,.21906236E-3,.6317E-4,0
SITRO-AIS 6 (CHIRKIN),2023-091AC,2026-07-20T06:55:58.484640,15.26490545,.00106472,97.5045,264.4568,358.5018,1.6186,0,U,57192,999,16933,.19933472E-3,.5134E-4,0
SITRO-AIS 8 (ANOKHIN),2023-091AD,2026-07-20T06:07:53.954112,15.32934968,.00089892,97.5032,267.2095,349.0891,11.0155,0,U,57193,999,16951,.24723161E-3,.7793E-4,0
SITRO-AIS 7 (FARTUSHNIY),2023-091AE,2026-07-20T04:01:39.942624,15.26161761,.00106207,97.5041,264.1426,0.2309,359.8932,0,U,57194,999,16930,.19957942E-3,.5089E-4,0
SITRO-AIS 10 (BURDAEV),2023-091AK,2026-07-20T05:01:22.916928,15.39740396,.00044918,97.5058,272.5669,318.6208,41.4697,0,U,57199,999,16984,.29007811E-3,.11396E-3,0
SITRO-AIS 9 (SHCHUKIN),2023-091AM,2026-07-20T04:21:21.428928,15.39221688,.00047528,97.5056,272.2416,319.2138,40.8751,0,U,57201,999,16982,.27763092E-3,.10718E-3,0
SITRO-AIS 12 (SMIRENNIY),2023-091AQ,2026-07-20T07:05:59.041536,15.39520668,.00043678,97.5069,272.8469,310.4227,49.6637,0,U,57204,999,16986,.28554402E-3,.11135E-3,0
SITRO-AIS 11 (SHEFFER),2023-091AU,2026-07-20T05:38:14.323200,15.39966543,.00043024,97.5068,273.0522,309.9449,50.1419,0,U,57208,999,16987,.28122662E-3,.11127E-3,0
SITRO-AIS 25,2024-039R,2026-07-20T06:30:45.825408,14.93659818,.01432204,95.3888,257.8267,211.5818,147.6755,0,U,59066,999,12966,.1123482E-3,.1418E-4,0
SITRO-AIS 26,2024-039S,2026-07-20T06:39:19.143360,14.93450987,.0143552,95.3889,257.7216,212.1800,147.0606,0,U,59067,999,12965,.11654428E-3,.1465E-4,0
SITRO-AIS 27,2024-039T,2026-07-20T07:19:29.523648,14.93876278,.01426769,95.3893,258.0280,210.6065,148.6782,0,U,59068,999,12968,.16046014E-3,.2049E-4,0
SITRO-AIS 28,2024-039U,2026-07-20T06:45:56.090880,14.93909906,.01425462,95.3893,258.0611,210.5189,148.7687,0,U,59071,999,12968,.12379786E-3,.1574E-4,0
GRBBETA,2024-128C,2026-07-20T00:05:27.748896,15.06826823,.00364398,61.9889,101.1115,141.7487,218.6202,0,U,60237,999,11121,.12639206E-3,.1698E-4,0
OOV-CUBE (TUBSAT-30),2024-128F,2026-07-20T06:10:15.152448,15.02886018,.00404558,61.9942,110.2494,141.1428,219.2584,0,U,60240,999,11108,.91432524E-4,.1037E-4,0
ROBUSTA-3A (MEDITERRANEE),2024-128J,2026-07-20T04:54:33.128640,15.12027172,.00374164,61.9860,91.4507,134.6676,225.7480,0,U,60243,999,11141,.23807324E-3,.395E-4,0
LASARSAT,2024-247Q,2026-07-20T00:42:52.000992,15.48248607,.0008052,44.9739,77.3825,196.4765,163.5865,0,U,62391,999,8840,.39312687E-3,.2091E-3,0
CROCUBE,2024-247T,2026-07-19T22:04:41.570112,15.50428783,.00083043,44.9711,74.7596,202.1601,157.8933,0,U,62394,999,8842,.43747887E-3,.25213E-3,0
FORESAIL-1 PRIME,2025-276DS,2026-07-20T03:14:24.173664,15.18962244,.00024561,97.4183,273.8062,32.7871,327.3515,0,U,66778,999,3540,.12204117E-3,.2483E-4,0
KNACKSAT-2,1998-067XZ,2026-07-20T07:27:55.007712,15.62761306,.00080072,51.6271,127.4977,345.8818,14.1951,0,U,67683,999,2545,.38340228E-3,.34825E-3,0
