M2 PATHFINDER           
1 45727U 20037E   26201.29583656  .00001209  00000+0  90085-4 0  9999
2 45727  97.8141  32.9023 0012435  46.2427 313.9826 15.04801382330477
NETSAT-4                
1 46504U 20068U   26201.29823942  .00010287  00000+0  22119-3 0  9990
2 46504  97.8610 212.2265 0005402 175.3559 184.7739 15.44862038320889
NETSAT-3                
1 46505U 20068V   26201.00531238  .00010484  00000+0  23434-3 0  9994
2 46505  97.8662 210.0865 0004422 191.3904 168.7244 15.43709807320743
NETSAT-1                
1 46506U 20068W   26201.25092742  .00006740  00000+0  19913-3 0  9991
2 46506  97.8763 204.2840 0002767 233.3172 126.7816 15.35314629320371
NETSAT-2                
1 46507U 20068X   26201.28913389  .00013521  00000+0  26688-3 0  9996
2 46507  97.8622 212.2399 0002898 187.9093 172.2110 15.47303503320853
GREENCUBE (IO-117)      
1 53109U 22080E   26201.17921782 -.00000003  00000+0  00000+0 0  9990
2 53109  70.1400 286.7734 0009088 282.4177  77.5466  6.42583323 94188
SITRO-AIS 5 (KATYS)     
1 57176U 23091L   26201.23237448  .00006317  00000+0  21906-3 0  9992
2 57176  97.5037 265.4594 0010103 354.1557   5.9564 15.30128407169397
SITRO-AIS 6 (CHIRKIN)   
1 57192U 23091AC  26201.28887135  .00005134  00000+0  19933-3 0  9992
2 57192  97.5045 264.4568 0010647 358.5018   1.6186 15.26490545169334
SITRO-AIS 8 (ANOKHIN)   
1 57193U 23091AD  26201.25548558  .00007793  00000+0  24723-3 0  9999
2 57193  97.5032 267.2095 0008989 349.0891  11.0155 15.32934968169517
SITRO-AIS 7 (FARTUSHNIY)
1 57194U 23091AE  26201.16782341  .00005089  00000+0  19958-3 0  9990
2 57194  97.5041 264.1426 0010620   0.2309 359.8932 15.26161761169306
SITRO-AIS 10 (BURDAEV)  
1 57199U 23091AK  26201.20929302  .00011396  00000+0  29008-3 0  9995
2 57199  97.5058 272.5669 0004491 318.6208  41.4697 15.39740396169846
SITRO-AIS 9 (SHCHUKIN)  
1 57201U 23091AM  26201.18149802  .00010718  00000+0  27763-3 0  9998
2 57201  97.5056 272.2416 0004752 319.2138  40.8751 15.39221688169824
SITRO-AIS 12 (SMIRENNIY)
1 57204U 23091AQ  26201.29582224  .00011135  00000+0  28554-3 0  9995
2 57204  97.5069 272.8469 0004367 310.4227  49.6637 15.39520668169863
SITRO-AIS 11 (SHEFFER)  
1 57208U 23091AU  26201.23488800  .00011127  00000+0  28123-3 0  9991
2 57208  97.5068 273.0522 0004302 309.9449  50.1419 15.39966543169879
SITRO-AIS 25            
1 59066U 24039R   26201.27136372  .00001418  00000+0  11235-3 0  9994
2 59066  95.3888 257.8267 0143220 211.5818 147.6755 14.93659818129667
SITRO-AIS 26            
1 59067U 24039S   26201.27730490  .00001465  00000+0  11654-3 0  9993
2 59067  95.3889 257.7216 0143552 212.1800 147.0606 14.93450987129652
SITRO-AIS 27            
1 59068U 24039T   26201.30520282  .00002049  00000+0  16046-3 0  9993
2 59068  95.3893 258.0280 0142676 210.6065 148.6782 14.93876278129685
SITRO-AIS 28            
1 59071U 24039U   26201.28189920  .00001574  00000+0  12380-3 0  9993
2 59071  95.3893 258.0611 0142546 210.5189 148.7687 14.93909906129689
GRBBETA                 
1 60237U 24128C   26201.00379339  .00001698  00000+0  12639-3 0  9997
2 60237  61.9889 101.1115 0036439 141.7487 218.6202 15.06826823111216
OOV-CUBE (TUBSAT-30)    
1 60240U 24128F   26201.25711982  .00001037  00000+0  91433-4 0  9999
2 60240  61.9942 110.2494 0040455 141.1428 219.2584 15.02886018111086
ROBUSTA-3A (MEDITERRAN*)
1 60243U 24128J   26201.20455010  .00003950  00000+0  23807-3 0  9999
2 60243  61.9860  91.4507 0037416 134.6676 225.7480 15.12027172111411
LASARSAT                
1 62391U 24247Q   26201.02976853  .00020910  00000+0  39313-3 0  9994
2 62391  44.9739  77.3825 0008052 196.4765 163.5865 15.48248607 88403
CROCUBE                 
1 62394U 24247T   26200.91992558  .00025213  00000+0  43748-3 0  9992
2 62394  44.9711  74.7596 0008304 202.1601 157.8933 15.50428783 88428
FORESAIL-1 PRIME        
1 66778U 25276DS  26201.13500201  .00002483  00000+0  12204-3 0  9997
2 66778  97.4183 273.8062 0002456  32.7871 327.3515 15.18962244 35401
KNACKSAT-2              
1 67683U 98067XZ  26201.31105333  .00034825  00000+0  38340-3 0  9992
2 67683  51.6271 127.4977 0008007 345.8818  14.1951 15.62761306 25457
